[{"OBJECT_NAME":"SHIYAN-6 01 (SY-6 01)","OBJECT_ID":"2018-094B","EPOCH":"2026-03-09T23:04:36.967872","MEAN_MOTION":15.28649156,"ECCENTRICITY":0.00144834,"INCLINATION":97.3669,"RA_OF_ASC_NODE":84.0964,"ARG_OF_PERICENTER":135.6758,"MEAN_ANOMALY":224.5644,"EPHEMERIS_TYPE":0,"CLASSIFICATION_TYPE":"U","NORAD_CAT_ID":43711,"ELEMENT_SET_NO":999,"REV_AT_EPOCH":40632,"BSTAR":0.00024768444,"MEAN_MOTION_DOT":6.847e-5,"MEAN_MOTION_DDOT":0},{"OBJECT_NAME":"STARLINK-34245","OBJECT_ID":"2025-113Z","EPOCH":"2026-03-09T09:05:40.775424","MEAN_MOTION":15.30193547,"ECCENTRICITY":0.00013575,"INCLINATION":53.1601,"RA_OF_ASC_NODE":92.1418,"ARG_OF_PERICENTER":79.4529,"MEAN_ANOMALY":280.6624,"EPHEMERIS_TYPE":0,"CLASSIFICATION_TYPE":"U","NORAD_CAT_ID":64193,"ELEMENT_SET_NO":999,"REV_AT_EPOCH":4498,"BSTAR":0.00096576002,"MEAN_MOTION_DOT":0.00028347,"MEAN_MOTION_DDOT":0}]
